{
  "type": "FeatureCollection",
  "features": [
    {
      "type": "Feature",
      "properties": {
        "norad_id": 34886,
        "name": "COSMOS 2251 DEB",
        "group": "cosmos-2251-debris",
        "lat": 46.95338122960493,
        "lon": -16.40420904130024,
        "alt_km": 457.2473480006929,
        "timestamp": "2025-12-12T11:38:31.808068+00:00",
        "meta_object_name": "COSMOS 2251 DEB",
        "meta_object_id": "1993-036ACZ",
        "meta_epoch": "2025-12-06T20:50:12.525792",
        "meta_mean_motion": 15.37603061,
        "meta_eccentricity": 0.00307569,
        "meta_inclination": 73.9508,
        "meta_ra_of_asc_node": 193.7093,
        "meta_arg_of_pericenter": 18.7929,
        "meta_mean_anomaly": 341.4404,
        "meta_ephemeris_type": 0,
        "meta_classification_type": "U",
        "meta_norad_cat_id": 34886,
        "meta_element_set_no": 999,
        "meta_rev_at_epoch": 62908,
        "meta_bstar": 0.0027638496,
        "meta_mean_motion_dot": 0.00105044,
        "meta_mean_motion_ddot": 0,
        "tle_line1": "1 34886U 93036ACZ 25340.86820053  .00105044  00000+0  27638-2 0  9997",
        "tle_line2": "2 34886  73.9508 193.7093 0030756  18.7929 341.4404 15.37603061629089"
      },
      "geometry": {
        "type": "Point",
        "coordinates": [
          -16.40420904130024,
          46.95338122960493
        ]
      }
    },
    {
      "type": "Feature",
      "properties": {
        "norad_id": 34907,
        "name": "COSMOS 2251 DEB",
        "group": "cosmos-2251-debris",
        "lat": 49.069129156614814,
        "lon": 68.33079069294999,
        "alt_km": 425.03356787723715,
        "timestamp": "2025-12-12T11:38:31.808078+00:00",
        "meta_object_name": "COSMOS 2251 DEB",
        "meta_object_id": "1993-036ADC",
        "meta_epoch": "2025-12-11T05:51:35.474112",
        "meta_mean_motion": 15.42604987,
        "meta_eccentricity": 0.0020215,
        "meta_inclination": 73.9703,
        "meta_ra_of_asc_node": 51.6726,
        "meta_arg_of_pericenter": 343.8034,
        "meta_mean_anomaly": 16.2526,
        "meta_ephemeris_type": 0,
        "meta_classification_type": "U",
        "meta_norad_cat_id": 34907,
        "meta_element_set_no": 999,
        "meta_rev_at_epoch": 87950,
        "meta_bstar": 0.013339,
        "meta_mean_motion_dot": 0.00633609,
        "meta_mean_motion_ddot": 0,
        "tle_line1": "1 34907U 93036ADC 25345.24416058  .00633609  00000+0  13339-1 0  9999",
        "tle_line2": "2 34907  73.9703  51.6726 0020215 343.8034  16.2526 15.42604987879503"
      },
      "geometry": {
        "type": "Point",
        "coordinates": [
          68.33079069294999,
          49.069129156614814
        ]
      }
    },
    {
      "type": "Feature",
      "properties": {
        "norad_id": 34908,
        "name": "COSMOS 2251 DEB",
        "group": "cosmos-2251-debris",
        "lat": -17.510627025780522,
        "lon": -150.70168929826477,
        "alt_km": 798.1572630413948,
        "timestamp": "2025-12-12T11:38:31.808088+00:00",
        "meta_object_name": "COSMOS 2251 DEB",
        "meta_object_id": "1993-036ADD",
        "meta_epoch": "2025-12-12T04:18:31.391136",
        "meta_mean_motion": 14.37395899,
        "meta_eccentricity": 0.0040022,
        "meta_inclination": 74.0593,
        "meta_ra_of_asc_node": 24.6859,
        "meta_arg_of_pericenter": 40.987,
        "meta_mean_anomaly": 16.4387,
        "meta_ephemeris_type": 0,
        "meta_classification_type": "U",
        "meta_norad_cat_id": 34908,
        "meta_element_set_no": 999,
        "meta_rev_at_epoch": 87271,
        "meta_bstar": 0.00078652,
        "meta_mean_motion_dot": 2.347e-05,
        "meta_mean_motion_ddot": 0,
        "tle_line1": "1 34908U 93036ADD 25346.17952999  .00002347  00000+0  78652-3 0  9992",
        "tle_line2": "2 34908  74.0593  24.6859 0040022  40.9870  16.4387 14.37395899872716"
      },
      "geometry": {
        "type": "Point",
        "coordinates": [
          -150.70168929826477,
          -17.510627025780522
        ]
      }
    },
    {
      "type": "Feature",
      "properties": {
        "norad_id": 34909,
        "name": "COSMOS 2251 DEB",
        "group": "cosmos-2251-debris",
        "lat": -60.22258501278901,
        "lon": 47.00555659929211,
        "alt_km": 634.8024693522893,
        "timestamp": "2025-12-12T11:38:31.808099+00:00",
        "meta_object_name": "COSMOS 2251 DEB",
        "meta_object_id": "1993-036ADE",
        "meta_epoch": "2025-12-11T16:26:21.719904",
        "meta_mean_motion": 14.7782075,
        "meta_eccentricity": 0.00845921,
        "meta_inclination": 74.0142,
        "meta_ra_of_asc_node": 78.6447,
        "meta_arg_of_pericenter": 214.714,
        "meta_mean_anomaly": 144.85,
        "meta_ephemeris_type": 0,
        "meta_classification_type": "U",
        "meta_norad_cat_id": 34909,
        "meta_element_set_no": 999,
        "meta_rev_at_epoch": 66836,
        "meta_bstar": 0.00098598419,
        "meta_mean_motion_dot": 7.492e-05,
        "meta_mean_motion_ddot": 0,
        "tle_line1": "1 34909U 93036ADE 25345.68497361  .00007492  00000+0  98598-3 0  9992",
        "tle_line2": "2 34909  74.0142  78.6447 0084592 214.7140 144.8500 14.77820750668360"
      },
      "geometry": {
        "type": "Point",
        "coordinates": [
          47.00555659929211,
          -60.22258501278901
        ]
      }
    },
    {
      "type": "Feature",
      "properties": {
        "norad_id": 34910,
        "name": "COSMOS 2251 DEB",
        "group": "cosmos-2251-debris",
        "lat": 20.859467762265812,
        "lon": 108.1599606612687,
        "alt_km": 1447.5217620132053,
        "timestamp": "2025-12-12T11:38:31.808108+00:00",
        "meta_object_name": "COSMOS 2251 DEB",
        "meta_object_id": "1993-036ADF",
        "meta_epoch": "2025-12-04T03:27:09.174816",
        "meta_mean_motion": 13.3765034,
        "meta_eccentricity": 0.04679235,
        "meta_inclination": 73.8763,
        "meta_ra_of_asc_node": 114.9889,
        "meta_arg_of_pericenter": 235.2756,
        "meta_mean_anomaly": 311.3517,
        "meta_ephemeris_type": 0,
        "meta_classification_type": "U",
        "meta_norad_cat_id": 34910,
        "meta_element_set_no": 999,
        "meta_rev_at_epoch": 81409,
        "meta_bstar": 0.0018660381,
        "meta_mean_motion_dot": 1.821e-05,
        "meta_mean_motion_ddot": 0,
        "tle_line1": "1 34910U 93036ADF 25338.14385619  .00001821  00000+0  18660-2 0  9990",
        "tle_line2": "2 34910  73.8763 114.9889 0467923 235.2756 311.3517 13.37650340814099"
      },
      "geometry": {
        "type": "Point",
        "coordinates": [
          108.1599606612687,
          20.859467762265812
        ]
      }
    },
    {
      "type": "Feature",
      "properties": {
        "norad_id": 34911,
        "name": "COSMOS 2251 DEB",
        "group": "cosmos-2251-debris",
        "lat": 45.40668903500986,
        "lon": -97.89762257744567,
        "alt_km": 643.65948123811,
        "timestamp": "2025-12-12T11:38:31.808118+00:00",
        "meta_object_name": "COSMOS 2251 DEB",
        "meta_object_id": "1993-036ADG",
        "meta_epoch": "2025-12-12T03:54:43.346880",
        "meta_mean_motion": 14.59370675,
        "meta_eccentricity": 0.0083566,
        "meta_inclination": 74.0412,
        "meta_ra_of_asc_node": 245.8432,
        "meta_arg_of_pericenter": 11.3776,
        "meta_mean_anomaly": 144.4363,
        "meta_ephemeris_type": 0,
        "meta_classification_type": "U",
        "meta_norad_cat_id": 34911,
        "meta_element_set_no": 999,
        "meta_rev_at_epoch": 88578,
        "meta_bstar": 0.00025464,
        "meta_mean_motion_dot": 1.233e-05,
        "meta_mean_motion_ddot": 0,
        "tle_line1": "1 34911U 93036ADG 25346.16300170  .00001233  00000+0  25464-3 0  9999",
        "tle_line2": "2 34911  74.0412 245.8432 0083566  11.3776 144.4363 14.59370675885787"
      },
      "geometry": {
        "type": "Point",
        "coordinates": [
          -97.89762257744567,
          45.40668903500986
        ]
      }
    },
    {
      "type": "Feature",
      "properties": {
        "norad_id": 34913,
        "name": "COSMOS 2251 DEB",
        "group": "cosmos-2251-debris",
        "lat": 66.86978698539626,
        "lon": -34.93148468078693,
        "alt_km": 758.2710994945392,
        "timestamp": "2025-12-12T11:38:31.808129+00:00",
        "meta_object_name": "COSMOS 2251 DEB",
        "meta_object_id": "1993-036ADJ",
        "meta_epoch": "2025-12-10T13:00:18.152064",
        "meta_mean_motion": 14.346364,
        "meta_eccentricity": 0.0020264,
        "meta_inclination": 74.0283,
        "meta_ra_of_asc_node": 286.5252,
        "meta_arg_of_pericenter": 37.1811,
        "meta_mean_anomaly": 83.6827,
        "meta_ephemeris_type": 0,
        "meta_classification_type": "U",
        "meta_norad_cat_id": 34913,
        "meta_element_set_no": 999,
        "meta_rev_at_epoch": 65156,
        "meta_bstar": 9.4175e-05,
        "meta_mean_motion_dot": 2.41e-06,
        "meta_mean_motion_ddot": 0,
        "tle_line1": "1 34913U 93036ADJ 25344.54187676  .00000241  00000+0  94175-4 0  9999",
        "tle_line2": "2 34913  74.0283 286.5252 0020264  37.1811  83.6827 14.34636400651569"
      },
      "geometry": {
        "type": "Point",
        "coordinates": [
          -34.93148468078693,
          66.86978698539626
        ]
      }
    }
  ]
}